{
  "type": "FeatureCollection",
  "features": [
    {
      "type": "Feature",
      "properties": {
        "norad_id": 66733,
        "name": "FLOCK 4H-30",
        "group": "last-30-days",
        "lat": -77.50235663364532,
        "lon": -143.46228930340752,
        "alt_km": 519.1657301249461,
        "timestamp": "2025-12-27T03:58:42.931553+00:00",
        "meta_object_name": "FLOCK 4H-30",
        "meta_object_id": "2025-276BV",
        "meta_epoch": "2025-12-26T17:20:23.218080",
        "meta_mean_motion": 15.17304077,
        "meta_eccentricity": 0.0003243,
        "meta_inclination": 97.4427,
        "meta_ra_of_asc_node": 72.2438,
        "meta_arg_of_pericenter": 245.4321,
        "meta_mean_anomaly": 114.6574,
        "meta_ephemeris_type": 0,
        "meta_classification_type": "U",
        "meta_norad_cat_id": 66733,
        "meta_element_set_no": 999,
        "meta_rev_at_epoch": 424,
        "meta_bstar": 0.00054226,
        "meta_mean_motion_dot": 0.0001075,
        "meta_mean_motion_ddot": 0,
        "tle_line1": "1 66733U 25276BV  25360.72249095  .00010750  00000+0  54226-3 0  9995",
        "tle_line2": "2 66733  97.4427  72.2438 0003243 245.4321 114.6574 15.17304077  4242"
      },
      "geometry": {
        "type": "Point",
        "coordinates": [
          -143.46228930340752,
          -77.50235663364532
        ]
      }
    },
    {
      "type": "Feature",
      "properties": {
        "norad_id": 66734,
        "name": "FLOCK 4H-31",
        "group": "last-30-days",
        "lat": -77.40569270083931,
        "lon": -143.1224247957134,
        "alt_km": 521.7048780308505,
        "timestamp": "2025-12-27T03:58:42.931563+00:00",
        "meta_object_name": "FLOCK 4H-31",
        "meta_object_id": "2025-276BW",
        "meta_epoch": "2025-12-26T18:55:22.010880",
        "meta_mean_motion": 15.17238304,
        "meta_eccentricity": 6.66e-05,
        "meta_inclination": 97.4364,
        "meta_ra_of_asc_node": 72.2825,
        "meta_arg_of_pericenter": 15.6931,
        "meta_mean_anomaly": 344.4323,
        "meta_ephemeris_type": 0,
        "meta_classification_type": "U",
        "meta_norad_cat_id": 66734,
        "meta_element_set_no": 999,
        "meta_rev_at_epoch": 425,
        "meta_bstar": 0.00068565,
        "meta_mean_motion_dot": 0.00013589,
        "meta_mean_motion_ddot": 0,
        "tle_line1": "1 66734U 25276BW  25360.78844920  .00013589  00000+0  68565-3 0  9994",
        "tle_line2": "2 66734  97.4364  72.2825 0000666  15.6931 344.4323 15.17238304  4258"
      },
      "geometry": {
        "type": "Point",
        "coordinates": [
          -143.1224247957134,
          -77.40569270083931
        ]
      }
    },
    {
      "type": "Feature",
      "properties": {
        "norad_id": 66735,
        "name": "FLOCK 4H-32",
        "group": "last-30-days",
        "lat": -75.8737523959976,
        "lon": -138.61658998176267,
        "alt_km": 519.0106987077534,
        "timestamp": "2025-12-27T03:58:42.931574+00:00",
        "meta_object_name": "FLOCK 4H-32",
        "meta_object_id": "2025-276BX",
        "meta_epoch": "2025-12-26T15:45:55.948320",
        "meta_mean_motion": 15.17280876,
        "meta_eccentricity": 0.0003607,
        "meta_inclination": 97.4421,
        "meta_ra_of_asc_node": 72.1751,
        "meta_arg_of_pericenter": 241.5292,
        "meta_mean_anomaly": 118.5578,
        "meta_ephemeris_type": 0,
        "meta_classification_type": "U",
        "meta_norad_cat_id": 66735,
        "meta_element_set_no": 999,
        "meta_rev_at_epoch": 423,
        "meta_bstar": 0.00052323,
        "meta_mean_motion_dot": 0.00010364,
        "meta_mean_motion_ddot": 0,
        "tle_line1": "1 66735U 25276BX  25360.65689755  .00010364  00000+0  52323-3 0  9997",
        "tle_line2": "2 66735  97.4421  72.1751 0003607 241.5292 118.5578 15.17280876  4239"
      },
      "geometry": {
        "type": "Point",
        "coordinates": [
          -138.61658998176267,
          -75.8737523959976
        ]
      }
    },
    {
      "type": "Feature",
      "properties": {
        "norad_id": 66736,
        "name": "FLOCK 4H-33",
        "group": "last-30-days",
        "lat": 5.001521741555241,
        "lon": 72.06437895111088,
        "alt_km": 514.8074017004947,
        "timestamp": "2025-12-27T03:58:42.931583+00:00",
        "meta_object_name": "FLOCK 4H-33",
        "meta_object_id": "2025-276BY",
        "meta_epoch": "2025-12-26T15:18:11.013408",
        "meta_mean_motion": 15.18346209,
        "meta_eccentricity": 0.0002878,
        "meta_inclination": 97.4419,
        "meta_ra_of_asc_node": 72.2002,
        "meta_arg_of_pericenter": 150.0957,
        "meta_mean_anomaly": 210.0442,
        "meta_ephemeris_type": 0,
        "meta_classification_type": "U",
        "meta_norad_cat_id": 66736,
        "meta_element_set_no": 999,
        "meta_rev_at_epoch": 423,
        "meta_bstar": 0.00043311,
        "meta_mean_motion_dot": 8.832e-05,
        "meta_mean_motion_ddot": 0,
        "tle_line1": "1 66736U 25276BY  25360.63762747  .00008832  00000+0  43311-3 0  9993",
        "tle_line2": "2 66736  97.4419  72.2002 0002878 150.0957 210.0442 15.18346209  4230"
      },
      "geometry": {
        "type": "Point",
        "coordinates": [
          72.06437895111088,
          5.001521741555241
        ]
      }
    },
    {
      "type": "Feature",
      "properties": {
        "norad_id": 66737,
        "name": "FLOCK 4H-34",
        "group": "last-30-days",
        "lat": -6.3163812930377174,
        "lon": 73.54962164195346,
        "alt_km": 517.0022681773189,
        "timestamp": "2025-12-27T03:58:42.931592+00:00",
        "meta_object_name": "FLOCK 4H-34",
        "meta_object_id": "2025-276BZ",
        "meta_epoch": "2025-12-26T16:56:01.675680",
        "meta_mean_motion": 15.18196447,
        "meta_eccentricity": 0.0002817,
        "meta_inclination": 97.4433,
        "meta_ra_of_asc_node": 72.2677,
        "meta_arg_of_pericenter": 158.7235,
        "meta_mean_anomaly": 201.4117,
        "meta_ephemeris_type": 0,
        "meta_classification_type": "U",
        "meta_norad_cat_id": 66737,
        "meta_element_set_no": 999,
        "meta_rev_at_epoch": 349,
        "meta_bstar": 0.00037574,
        "meta_mean_motion_dot": 7.619e-05,
        "meta_mean_motion_ddot": 0,
        "tle_line1": "1 66737U 25276BZ  25360.70557495  .00007619  00000+0  37574-3 0  9990",
        "tle_line2": "2 66737  97.4433  72.2677 0002817 158.7235 201.4117 15.18196447  3499"
      },
      "geometry": {
        "type": "Point",
        "coordinates": [
          73.54962164195346,
          -6.3163812930377174
        ]
      }
    },
    {
      "type": "Feature",
      "properties": {
        "norad_id": 66738,
        "name": "FLOCK 4H-35",
        "group": "last-30-days",
        "lat": 4.002809025594292,
        "lon": 72.18604692903057,
        "alt_km": 514.729896961313,
        "timestamp": "2025-12-27T03:58:42.931602+00:00",
        "meta_object_name": "FLOCK 4H-35",
        "meta_object_id": "2025-276CA",
        "meta_epoch": "2025-12-26T15:18:25.760160",
        "meta_mean_motion": 15.18302161,
        "meta_eccentricity": 0.0002612,
        "meta_inclination": 97.4396,
        "meta_ra_of_asc_node": 72.1907,
        "meta_arg_of_pericenter": 140.4723,
        "meta_mean_anomaly": 219.6702,
        "meta_ephemeris_type": 0,
        "meta_classification_type": "U",
        "meta_norad_cat_id": 66738,
        "meta_element_set_no": 999,
        "meta_rev_at_epoch": 352,
        "meta_bstar": 0.00082926,
        "meta_mean_motion_dot": 0.00016967,
        "meta_mean_motion_ddot": 0,
        "tle_line1": "1 66738U 25276CA  25360.63779815  .00016967  00000+0  82926-3 0  9992",
        "tle_line2": "2 66738  97.4396  72.1907 0002612 140.4723 219.6702 15.18302161  3523"
      },
      "geometry": {
        "type": "Point",
        "coordinates": [
          72.18604692903057,
          4.002809025594292
        ]
      }
    },
    {
      "type": "Feature",
      "properties": {
        "norad_id": 66739,
        "name": "FLOCK 4H-36",
        "group": "last-30-days",
        "lat": -21.729664816394074,
        "lon": 75.7048000243698,
        "alt_km": 518.9796092551187,
        "timestamp": "2025-12-27T03:58:42.931611+00:00",
        "meta_object_name": "FLOCK 4H-36",
        "meta_object_id": "2025-276CB",
        "meta_epoch": "2025-12-26T17:00:03.880800",
        "meta_mean_motion": 15.18041307,
        "meta_eccentricity": 0.0002701,
        "meta_inclination": 97.4441,
        "meta_ra_of_asc_node": 72.2678,
        "meta_arg_of_pericenter": 172.1138,
        "meta_mean_anomaly": 188.0139,
        "meta_ephemeris_type": 0,
        "meta_classification_type": "U",
        "meta_norad_cat_id": 66739,
        "meta_element_set_no": 999,
        "meta_rev_at_epoch": 424,
        "meta_bstar": 0.00035061,
        "meta_mean_motion_dot": 7.072e-05,
        "meta_mean_motion_ddot": 0,
        "tle_line1": "1 66739U 25276CB  25360.70837825  .00007072  00000+0  35061-3 0  9992",
        "tle_line2": "2 66739  97.4441  72.2678 0002701 172.1138 188.0139 15.18041307  4247"
      },
      "geometry": {
        "type": "Point",
        "coordinates": [
          75.7048000243698,
          -21.729664816394074
        ]
      }
    }
  ]
}